{"fetched_at":"2026-03-29T16:36:15Z","count":15609,"tles":[{"name":"STARLINK-3641","line1":"1 51788U 22017W   26087.78907434  .00003981  00000+0  26805-3 0  9990","line2":"2 51788  53.2163 263.3815 0001498  91.7540 268.3624 15.08840533226803","category":"Starlink"}]}